NORAD_CAT_ID,OBJECT_NAME,OBJECT_TYPE,EPOCH,MEAN_MOTION,ECCENTRICITY,INCLINATION,RA_OF_ASC_NODE,ARG_OF_PERICENTER,MEAN_ANOMALY,BSTAR,MEAN_MOTION_DOT,MEAN_MOTION_DDOT,TLE_LINE0,TLE_LINE1,TLE_LINE2,SEMIMAJOR_AXIS,PERIOD,APOGEE,PERIGEE,DECAYED
51783.0,STARLINK-3628,PAYLOAD,2022-07-06 21:18:17,15.08836675,0.0001866,53.2173,242.695,43.2346,316.8793,9.2041e-05,1.177e-05,0.0,0 STARLINK-3628,1 51783U 22017R   22187.88770379  .00001177  00000-0  92041-4 0  9991,2 51783  53.2173 242.6950 0001866  43.2346 316.8793 15.08836675 19857,6917.891,95.438,541.0459999999998,538.465,0.0
51783.0,STARLINK-3628,PAYLOAD,2022-07-07 03:39:50,15.08840339,0.0001865,53.2173,241.5054,43.111,317.0028,8.0394e-05,9.92e-06,0.0,0 STARLINK-3628,1 51783U 22017R   22188.15266205  .00000992  00000-0  80394-4 0  9992,2 51783  53.2173 241.5054 0001865  43.1110 317.0028 15.08840339 21531,6917.879,95.438,541.035,538.4540000000002,0.0
51783.0,STARLINK-3628,PAYLOAD,2022-07-07 11:36:45,15.08842863,0.000189,53.2172,240.0186,43.3808,316.7333,7.1776e-05,8.54e-06,0.0,0 STARLINK-3628,1 51783U 22017R   22188.48386029  .00000854  00000-0  71776-4 0  9996,2 51783  53.2172 240.0186 0001890  43.3808 316.7333 15.08842863 19945,6917.871999999999,95.437,541.044,538.429,0.0
51783.0,STARLINK-3628,PAYLOAD,2022-07-07 22:00:00,15.08822244,0.0001857,53.2167,238.0755,39.7919,152.5966,0.00063925,9.895e-05,0.0,0 STARLINK-3628,1 51783U 22017R   22188.91667824  .00009895  00000-0  63925-3 0  9999,2 51783  53.2167 238.0755 0001857  39.7919 152.5966 15.08822244  1303,6917.935,95.439,541.0840000000002,538.515,0.0
51783.0,STARLINK-3628,PAYLOAD,2022-07-08 06:00:02,15.08849046,0.000191,53.2169,236.5793,41.7176,162.3099,-0.0013394,-0.00021547,0.0,0 STARLINK-3628,1 51783U 22017R   22189.25002315 -.00021547  00000-0 -13394-2 0  9999,2 51783  53.2169 236.5793 0001910  41.7176 162.3099 15.08849046 21709,6917.853,95.437,541.039,538.396,0.0
51783.0,STARLINK-3628,PAYLOAD,2022-07-08 14:00:01,15.0882574,0.0002085,53.2168,235.0843,36.458,179.125,0.0034057,0.00054311,0.0,0 STARLINK-3628,1 51783U 22017R   22189.58334491  .00054311  00000-0  34057-2 0  9990,2 51783  53.2168 235.0843 0002085  36.4580 179.1250 15.08825740  1306,6917.924,95.438,541.231,538.347,0.0
51783.0,STARLINK-3628,PAYLOAD,2022-07-08 22:00:01,15.08848764,0.0001905,53.2169,233.586,40.5007,186.7551,0.0010290999999999,0.00016132,0.0,0 STARLINK-3628,1 51783U 22017R   22189.91668981  .00016132  00000-0  10291-2 0  9994,2 51783  53.2169 233.5860 0001905  40.5007 186.7551 15.08848764 21805,6917.854,95.437,541.036,538.401,0.0
51783.0,STARLINK-3628,PAYLOAD,2022-07-09 14:00:01,15.08790349,0.0002094,53.2167,230.5952,37.2111,213.1815,0.0021363,0.00033829,0.0,0 STARLINK-3628,1 51783U 22017R   22190.58334491  .00033829  00000-0  21363-2 0  9999,2 51783  53.2167 230.5952 0002094  37.2111 213.1815 15.08790349  1307,6918.031999999997,95.441,541.346,538.4490000000002,0.0
51783.0,STARLINK-3628,PAYLOAD,2022-07-09 16:00:00,15.08811936,0.0002061,53.2165,230.2207,37.1819,306.0925,-0.00055306,-9.073e-05,0.0,0 STARLINK-3628,1 51783U 22017R   22190.66667824 -.00009073  00000-0 -55306-3 0  9998,2 51783  53.2165 230.2207 0002061  37.1819 306.0925 15.08811936 21912,6917.965999999999,95.439,541.257,538.405,0.0
51783.0,STARLINK-3628,PAYLOAD,2022-07-09 20:00:01,15.08814531,0.000193,53.2167,229.4716,40.3396,128.7153,-0.0010558,-0.0001704,0.0,0 STARLINK-3628,1 51783U 22017R   22190.83334491 -.00017040  00000-0 -10558-2 0  9990,2 51783  53.2167 229.4716 0001930  40.3396 128.7153 15.08814531  1306,6917.958000000001,95.439,541.158,538.488,0.0
51783.0,STARLINK-3628,PAYLOAD,2022-07-10 14:00:01,15.0879744,0.0002087,53.2161,226.1065,38.1126,246.9529,0.0020074,0.00031767,0.0,0 STARLINK-3628,1 51783U 22017R   22191.58334491  .00031767  00000-0  20074-2 0  9997,2 51783  53.2161 226.1065 0002087  38.1126 246.9529 15.08797440  1300,6918.01,95.44,541.319,538.432,0.0
51783.0,STARLINK-3628,PAYLOAD,2022-07-10 22:00:00,15.08794473,0.0001895,53.216,224.6085,42.9671,253.666,0.0022369,0.00035448,0.0,0 STARLINK-3628,1 51783U 22017R   22191.91667824  .00035448  00000-0  22369-2 0  9992,2 51783  53.2160 224.6085 0001895  42.9671 253.6660 15.08794473 22103,6918.02,95.44,541.196,538.5740000000002,0.0
51783.0,STARLINK-3628,PAYLOAD,2022-07-11 14:00:01,15.08822893,0.0002042,53.2152,221.6177,37.3509,282.4068,0.0026727,0.00042485,0.0,0 STARLINK-3628,1 51783U 22017R   22192.58334491  .00042485  00000-0  26727-2 0  9998,2 51783  53.2152 221.6177 0002042  37.3509 282.4068 15.08822893  1305,6917.933000000001,95.439,541.21,538.385,0.0
51783.0,STARLINK-3628,PAYLOAD,2022-07-11 22:00:00,15.08824321,0.0001846,53.2151,220.1196,42.1534,289.2064,0.002588,0.00041123,0.0,0 STARLINK-3628,1 51783U 22017R   22192.91667824  .00041123  00000-0  25880-2 0  9991,2 51783  53.2151 220.1196 0001846  42.1534 289.2064 15.08824321 22258,6917.928000000001,95.439,541.07,538.516,0.0
51783.0,STARLINK-3628,PAYLOAD,2022-07-12 14:00:01,15.08847313,0.0002085,53.2144,217.1284,37.7226,316.8413,0.0010932,0.00017157,0.0,0 STARLINK-3628,1 51783U 22017R   22193.58334491  .00017157  00000-0  10932-2 0  9998,2 51783  53.2144 217.1284 0002085  37.7226 316.8413 15.08847313 22350,6917.858,95.437,541.165,538.281,0.0
51783.0,STARLINK-3628,PAYLOAD,2022-07-12 22:00:00,15.08832839,0.0001913,53.2144,215.6302,43.216,322.9702,0.0029574,0.00047085,0.0,0 STARLINK-3628,1 51783U 22017R   22193.91667824  .00047085  00000-0  29574-2 0  9999,2 51783  53.2144 215.6302 0001913  43.2160 322.9702 15.08832839  1300,6917.901999999999,95.438,541.091,538.444,0.0
51783.0,STARLINK-3628,PAYLOAD,2022-07-13 14:00:01,15.08840071,0.0002109,53.2142,212.6389,36.4993,352.9134,-2.6822e-05,-7.15e-06,0.0,0 STARLINK-3628,1 51783U 22017R   22194.58334491 -.00000715  00000-0 -26822-4 0  9990,2 51783  53.2142 212.6389 0002109  36.4993 352.9134 15.08840071  1305,6917.88,95.438,541.2040000000002,538.286,0.0
51783.0,STARLINK-3628,PAYLOAD,2022-07-13 16:00:00,15.08850766,0.0002076,53.2143,212.2643,37.5327,84.7765,-0.0016743,-0.00026844,0.0,0 STARLINK-3628,1 51783U 22017R   22194.66667824 -.00026844  00000-0 -16743-2 0  9998,2 51783  53.2143 212.2643 0002076  37.5327  84.7765 15.08850766 22519,6917.847,95.437,541.149,538.276,0.0
51783.0,STARLINK-3628,PAYLOAD,2022-07-13 22:00:00,15.08813536,0.0001934,53.2144,211.1407,41.2444,359.7707,0.0029388,0.0004676,0.0,0 STARLINK-3628,1 51783U 22017R   22194.91667824  .00046760  00000-0  29388-2 0  9992,2 51783  53.2144 211.1407 0001934  41.2444 359.7707 15.08813536  1309,6917.9609999999975,95.439,541.164,538.488,0.0
51783.0,STARLINK-3628,PAYLOAD,2022-07-14 08:00:01,15.08844886,0.0002189,53.2145,209.2718,39.9277,105.5752,-0.00049593,-8.174e-05,0.0,0 STARLINK-3628,1 51783U 22017R   22195.33334491 -.00008174  00000-0 -49593-3 0  9990,2 51783  53.2145 209.2718 0002189  39.9277 105.5752 15.08844886 22610,6917.865,95.437,541.245,538.216,0.0
51783.0,STARLINK-3628,PAYLOAD,2022-07-14 14:00:01,15.08843854,0.0002213,53.2145,208.1493,37.3051,26.8888,0.00017454,2.491e-05,0.0,0 STARLINK-3628,1 51783U 22017R   22195.58334491  .00002491  00000-0  17454-3 0  9992,2 51783  53.2145 208.1493 0002213  37.3051  26.8888 15.08843854  1300,6917.869000000002,95.437,541.265,538.203,0.0
51783.0,STARLINK-3628,PAYLOAD,2022-07-14 22:00:00,15.08832561,0.000202,53.2149,206.6511,41.5015,34.2995,0.00089456,0.00013975,0.0,0 STARLINK-3628,1 51783U 22017R   22195.91667824  .00013975  00000-0  89456-3 0  9998,2 51783  53.2149 206.6511 0002020  41.5015  34.2995 15.08832561  1306,6917.903,95.438,541.1659999999998,538.371,0.0
51783.0,STARLINK-3628,PAYLOAD,2022-07-15 14:00:01,15.08828791,0.0002231,53.2152,203.6598,36.6456,62.327,-0.00025105,-4.28e-05,0.0,0 STARLINK-3628,1 51783U 22017R   22196.58334491 -.00004280  00000-0 -25105-3 0  9995,2 51783  53.2152 203.6598 0002231  36.6456  62.3270 15.08828791 22806,6917.915,95.438,541.323,538.236,0.0
51783.0,STARLINK-3628,PAYLOAD,2022-07-15 22:00:00,15.08808429,0.0002047,53.2156,202.1618,41.7519,68.8093,0.0026667,0.00042372,0.0,0 STARLINK-3628,1 51783U 22017R   22196.91667824  .00042372  00000-0  26667-2 0  9996,2 51783  53.2156 202.1618 0002047  41.7519  68.8093 15.08808429  1301,6917.977,95.44,541.258,538.4259999999998,0.0
51783.0,STARLINK-3628,PAYLOAD,2022-07-16 14:00:01,15.08842872,0.0002279,53.2158,199.1705,38.6711,95.0482,-0.00073479,-0.00011965,0.0,0 STARLINK-3628,1 51783U 22017R   22197.58334491 -.00011965  00000-0 -73479-3 0  9991,2 51783  53.2158 199.1705 0002279  38.6711  95.0482 15.08842872  1305,6917.871999999999,95.437,541.313,538.16,0.0
51783.0,STARLINK-3628,PAYLOAD,2022-07-16 22:00:00,15.0882206,0.0002087,53.2162,197.6726,43.7759,101.5448,0.0024667,0.00039169,0.0,0 STARLINK-3628,1 51783U 22017R   22197.91667824  .00039169  00000-0  24667-2 0  9995,2 51783  53.2162 197.6726 0002087  43.7759 101.5448 15.08822060 23005,6917.935,95.439,541.244,538.356,0.0
51783.0,STARLINK-3628,PAYLOAD,2022-07-17 14:00:01,15.08857536,0.0002283,53.2162,194.6813,40.827,127.6797,-0.0011942,-0.00019254,0.0,0 STARLINK-3628,1 51783U 22017R   22198.58334491 -.00019254  00000-0 -11942-2 0  9997,2 51783  53.2162 194.6813 0002283  40.8270 127.6797 15.08857536 23117,6917.8269999999975,95.436,541.271,538.112,0.0
51783.0,STARLINK-3628,PAYLOAD,2022-07-17 22:00:00,15.0885326,0.0002111,53.2168,193.1837,44.9674,135.1464,-0.00095406,-0.00015446,0.0,0 STARLINK-3628,1 51783U 22017R   22198.91667824 -.00015446  00000-0 -95406-3 0  9990,2 51783  53.2168 193.1837 0002111  44.9674 135.1464 15.08853260  1308,6917.84,95.437,541.165,538.245,0.0
51783.0,STARLINK-3628,PAYLOAD,2022-07-18 14:00:01,15.08840573,0.0002203,53.2161,190.1922,40.8383,162.4665,-0.0016502,-0.00026457,0.0,0 STARLINK-3628,1 51783U 22017R   22199.58334491 -.00026457  00000-0 -16502-2 0  9998,2 51783  53.2161 190.1922 0002203  40.8383 162.4665 15.08840573  1306,6917.879,95.438,541.268,538.22,0.0
